STARLINK-6334           
1 57238U 23094W   25334.03185933  .00000283  00000+0  36053-4 0  9995
2 57238  43.0029 199.2850 0001134 265.4834  94.5879 15.02537456132275
STARLINK-6330           
1 57239U 23094X   25334.09796236 -.00000266  00000+0 -45943-5 0  9998
2 57239  43.0025 211.0618 0001076 267.4547  92.6172 15.02533348132142
STARLINK-6351           
1 57240U 23094Y   25334.02297749  .00000434  00000+0  47202-4 0  9992
2 57240  43.0024 199.2158 0001248 267.2939  92.7760 15.02535800132276
STARLINK-6349           
1 57241U 23094Z   25334.03630062 -.00000617  00000+0 -30646-4 0  9992
2 57241  43.0018 199.3191 0001086 267.2034  92.8684 15.02531710132276
STARLINK-6306           
1 57242U 23094AA  25334.03296816  .00000120  00000+0  23944-4 0  9998
2 57242  43.0020 199.2938 0001293 274.1206  85.9489 15.02533674132273
STARLINK-6346           
1 57243U 23094AB  25334.03519014 -.00000026  00000+0  13161-4 0  9993
2 57243  43.0010 199.3111 0000975 276.1447  83.9284 15.02532817132271
STARLINK-5610           
1 57244U 23094AC  25334.02519719 -.00000047  00000+0  11586-4 0  9997
2 57244  43.0028 199.2320 0001187 266.6612  93.4094 15.02537583132276
STARLINK-5587           
1 57245U 23094AD  25334.02852777  .00000725  00000+0  68758-4 0  9997
2 57245  43.0031 199.2571 0000912 269.7465  90.3273 15.02535576132279
STARLINK-5049           
1 57246U 23094AE  25334.06614345 -.00002732  00000+0 -18716-3 0  9999
2 57246  43.0024 198.6777 0001471 267.6870  92.3804 15.02551882132282
STARLINK-5039           
1 57247U 23094AF  25334.02186712  .00000128  00000+0  24563-4 0  9991
2 57247  43.0030 199.2071 0000722 249.9074 110.1691 15.02536640132278
STARLINK-5514           
1 57248U 23094AG  25334.01853919  .00000125  00000+0  24356-4 0  9998
2 57248  43.0015 199.1816 0001050 264.4265  95.6457 15.02535041132278
STARLINK-5517           
1 57249U 23094AH  25334.01631205  .00000163  00000+0  27169-4 0  9998
2 57249  43.0032 199.1073 0001152 265.5195  94.5516 15.02536270132279
STARLINK-5488           
1 57250U 23094AJ  25333.07564032 -.00000130  00000+0  54645-5 0  9993
2 57250  43.0031 204.1498 0000998 269.2938  90.7790 15.02533624132138
STARLINK-5513           
1 57251U 23094AK  25334.01298898 -.00000238  00000+0 -25262-5 0  9996
2 57251  43.0028 199.1424 0001341 267.7015  92.3674 15.02533580132274
STARLINK-5511           
1 57252U 23094AL  25333.99854617  .00020697  00000+0  15485-2 0  9992
2 57252  43.0017 199.0316 0000659 269.8214  90.2553 15.02395063132272
STARLINK-5516           
1 57253U 23094AM  25333.94540088  .00000501  00000+0  52169-4 0  9996
2 57253  43.0022 199.4931 0001009 268.2413  91.8314 15.02535685132267
STARLINK-5490           
1 57254U 23094AN  25334.05948852  .00000355  00000+0  41358-4 0  9996
2 57254  43.0026 198.6286 0001187 267.8916  92.1791 15.02533614132281
