[{"OBJECT_NAME":"STARLINK-6334","OBJECT_ID":"2023-094W","EPOCH":"2025-11-30T00:45:52.646112","MEAN_MOTION":15.02537456,"ECCENTRICITY":0.0001134,"INCLINATION":43.0029,"RA_OF_ASC_NODE":199.285,"ARG_OF_PERICENTER":265.4834,"MEAN_ANOMALY":94.5879,"EPHEMERIS_TYPE":0,"CLASSIFICATION_TYPE":"U","NORAD_CAT_ID":57238,"ELEMENT_SET_NO":999,"REV_AT_EPOCH":13227,"BSTAR":3.6053e-5,"MEAN_MOTION_DOT":2.83e-6,"MEAN_MOTION_DDOT":0},{"OBJECT_NAME":"STARLINK-6330","OBJECT_ID":"2023-094X","EPOCH":"2025-11-30T02:21:03.947904","MEAN_MOTION":15.02533348,"ECCENTRICITY":0.0001076,"INCLINATION":43.0025,"RA_OF_ASC_NODE":211.0618,"ARG_OF_PERICENTER":267.4547,"MEAN_ANOMALY":92.6172,"EPHEMERIS_TYPE":0,"CLASSIFICATION_TYPE":"U","NORAD_CAT_ID":57239,"ELEMENT_SET_NO":999,"REV_AT_EPOCH":13214,"BSTAR":-4.5943e-6,"MEAN_MOTION_DOT":-2.66e-6,"MEAN_MOTION_DDOT":0},{"OBJECT_NAME":"STARLINK-6351","OBJECT_ID":"2023-094Y","EPOCH":"2025-11-30T00:33:05.255136","MEAN_MOTION":15.025358,"ECCENTRICITY":0.0001248,"INCLINATION":43.0024,"RA_OF_ASC_NODE":199.2158,"ARG_OF_PERICENTER":267.2939,"MEAN_ANOMALY":92.776,"EPHEMERIS_TYPE":0,"CLASSIFICATION_TYPE":"U","NORAD_CAT_ID":57240,"ELEMENT_SET_NO":999,"REV_AT_EPOCH":13227,"BSTAR":4.7202e-5,"MEAN_MOTION_DOT":4.34e-6,"MEAN_MOTION_DDOT":0},{"OBJECT_NAME":"STARLINK-6349","OBJECT_ID":"2023-094Z","EPOCH":"2025-11-30T00:52:16.373568","MEAN_MOTION":15.0253171,"ECCENTRICITY":0.0001086,"INCLINATION":43.0018,"RA_OF_ASC_NODE":199.3191,"ARG_OF_PERICENTER":267.2034,"MEAN_ANOMALY":92.8684,"EPHEMERIS_TYPE":0,"CLASSIFICATION_TYPE":"U","NORAD_CAT_ID":57241,"ELEMENT_SET_NO":999,"REV_AT_EPOCH":13227,"BSTAR":-3.0646e-5,"MEAN_MOTION_DOT":-6.17e-6,"MEAN_MOTION_DDOT":0},{"OBJECT_NAME":"STARLINK-6306","OBJECT_ID":"2023-094AA","EPOCH":"2025-11-30T00:47:28.449024","MEAN_MOTION":15.02533674,"ECCENTRICITY":0.0001293,"INCLINATION":43.002,"RA_OF_ASC_NODE":199.2938,"ARG_OF_PERICENTER":274.1206,"MEAN_ANOMALY":85.9489,"EPHEMERIS_TYPE":0,"CLASSIFICATION_TYPE":"U","NORAD_CAT_ID":57242,"ELEMENT_SET_NO":999,"REV_AT_EPOCH":13227,"BSTAR":2.3944e-5,"MEAN_MOTION_DOT":1.2e-6,"MEAN_MOTION_DDOT":0},{"OBJECT_NAME":"STARLINK-6346","OBJECT_ID":"2023-094AB","EPOCH":"2025-11-30T00:50:40.428096","MEAN_MOTION":15.02532817,"ECCENTRICITY":9.75e-5,"INCLINATION":43.001,"RA_OF_ASC_NODE":199.3111,"ARG_OF_PERICENTER":276.1447,"MEAN_ANOMALY":83.9284,"EPHEMERIS_TYPE":0,"CLASSIFICATION_TYPE":"U","NORAD_CAT_ID":57243,"ELEMENT_SET_NO":999,"REV_AT_EPOCH":13227,"BSTAR":1.3161e-5,"MEAN_MOTION_DOT":-2.6e-7,"MEAN_MOTION_DDOT":0},{"OBJECT_NAME":"STARLINK-5610","OBJECT_ID":"2023-094AC","EPOCH":"2025-11-30T00:36:17.037216","MEAN_MOTION":15.02537583,"ECCENTRICITY":0.0001187,"INCLINATION":43.0028,"RA_OF_ASC_NODE":199.232,"ARG_OF_PERICENTER":266.6612,"MEAN_ANOMALY":93.4094,"EPHEMERIS_TYPE":0,"CLASSIFICATION_TYPE":"U","NORAD_CAT_ID":57244,"ELEMENT_SET_NO":999,"REV_AT_EPOCH":13227,"BSTAR":1.1586e-5,"MEAN_MOTION_DOT":-4.7e-7,"MEAN_MOTION_DDOT":0},{"OBJECT_NAME":"STARLINK-5587","OBJECT_ID":"2023-094AD","EPOCH":"2025-11-30T00:41:04.799328","MEAN_MOTION":15.02535576,"ECCENTRICITY":9.12e-5,"INCLINATION":43.0031,"RA_OF_ASC_NODE":199.2571,"ARG_OF_PERICENTER":269.7465,"MEAN_ANOMALY":90.3273,"EPHEMERIS_TYPE":0,"CLASSIFICATION_TYPE":"U","NORAD_CAT_ID":57245,"ELEMENT_SET_NO":999,"REV_AT_EPOCH":13227,"BSTAR":6.8758e-5,"MEAN_MOTION_DOT":7.25e-6,"MEAN_MOTION_DDOT":0},{"OBJECT_NAME":"STARLINK-5049","OBJECT_ID":"2023-094AE","EPOCH":"2025-11-30T01:35:14.794080","MEAN_MOTION":15.02551882,"ECCENTRICITY":0.0001471,"INCLINATION":43.0024,"RA_OF_ASC_NODE":198.6777,"ARG_OF_PERICENTER":267.687,"MEAN_ANOMALY":92.3804,"EPHEMERIS_TYPE":0,"CLASSIFICATION_TYPE":"U","NORAD_CAT_ID":57246,"ELEMENT_SET_NO":999,"REV_AT_EPOCH":13228,"BSTAR":-0.00018716,"MEAN_MOTION_DOT":-2.732e-5,"MEAN_MOTION_DDOT":0},{"OBJECT_NAME":"STARLINK-5039","OBJECT_ID":"2023-094AF","EPOCH":"2025-11-30T00:31:29.319168","MEAN_MOTION":15.0253664,"ECCENTRICITY":7.22e-5,"INCLINATION":43.003,"RA_OF_ASC_NODE":199.2071,"ARG_OF_PERICENTER":249.9074,"MEAN_ANOMALY":110.1691,"EPHEMERIS_TYPE":0,"CLASSIFICATION_TYPE":"U","NORAD_CAT_ID":57247,"ELEMENT_SET_NO":999,"REV_AT_EPOCH":13227,"BSTAR":2.4563e-5,"MEAN_MOTION_DOT":1.28e-6,"MEAN_MOTION_DDOT":0},{"OBJECT_NAME":"STARLINK-5514","OBJECT_ID":"2023-094AG","EPOCH":"2025-11-30T00:26:41.786016","MEAN_MOTION":15.02535041,"ECCENTRICITY":0.000105,"INCLINATION":43.0015,"RA_OF_ASC_NODE":199.1816,"ARG_OF_PERICENTER":264.4265,"MEAN_ANOMALY":95.6457,"EPHEMERIS_TYPE":0,"CLASSIFICATION_TYPE":"U","NORAD_CAT_ID":57248,"ELEMENT_SET_NO":999,"REV_AT_EPOCH":13227,"BSTAR":2.4356e-5,"MEAN_MOTION_DOT":1.25e-6,"MEAN_MOTION_DDOT":0},{"OBJECT_NAME":"STARLINK-5517","OBJECT_ID":"2023-094AH","EPOCH":"2025-11-30T00:23:29.361120","MEAN_MOTION":15.0253627,"ECCENTRICITY":0.0001152,"INCLINATION":43.0032,"RA_OF_ASC_NODE":199.1073,"ARG_OF_PERICENTER":265.5195,"MEAN_ANOMALY":94.5516,"EPHEMERIS_TYPE":0,"CLASSIFICATION_TYPE":"U","NORAD_CAT_ID":57249,"ELEMENT_SET_NO":999,"REV_AT_EPOCH":13227,"BSTAR":2.7169e-5,"MEAN_MOTION_DOT":1.63e-6,"MEAN_MOTION_DDOT":0},{"OBJECT_NAME":"STARLINK-5488","OBJECT_ID":"2023-094AJ","EPOCH":"2025-11-29T01:48:55.323648","MEAN_MOTION":15.02533624,"ECCENTRICITY":9.989e-5,"INCLINATION":43.0031,"RA_OF_ASC_NODE":204.1498,"ARG_OF_PERICENTER":269.2938,"MEAN_ANOMALY":90.779,"EPHEMERIS_TYPE":0,"CLASSIFICATION_TYPE":"U","NORAD_CAT_ID":57250,"ELEMENT_SET_NO":999,"REV_AT_EPOCH":13213,"BSTAR":5.464508e-6,"MEAN_MOTION_DOT":-1.3e-6,"MEAN_MOTION_DDOT":0},{"OBJECT_NAME":"STARLINK-5513","OBJECT_ID":"2023-094AK","EPOCH":"2025-11-30T00:18:42.247872","MEAN_MOTION":15.0253358,"ECCENTRICITY":0.0001341,"INCLINATION":43.0028,"RA_OF_ASC_NODE":199.1424,"ARG_OF_PERICENTER":267.7015,"MEAN_ANOMALY":92.3674,"EPHEMERIS_TYPE":0,"CLASSIFICATION_TYPE":"U","NORAD_CAT_ID":57251,"ELEMENT_SET_NO":999,"REV_AT_EPOCH":13227,"BSTAR":-2.5262e-6,"MEAN_MOTION_DOT":-2.38e-6,"MEAN_MOTION_DDOT":0},{"OBJECT_NAME":"STARLINK-5511","OBJECT_ID":"2023-094AL","EPOCH":"2025-11-29T23:57:54.389088","MEAN_MOTION":15.02395063,"ECCENTRICITY":6.59e-5,"INCLINATION":43.0017,"RA_OF_ASC_NODE":199.0316,"ARG_OF_PERICENTER":269.8214,"MEAN_ANOMALY":90.2553,"EPHEMERIS_TYPE":0,"CLASSIFICATION_TYPE":"U","NORAD_CAT_ID":57252,"ELEMENT_SET_NO":999,"REV_AT_EPOCH":13227,"BSTAR":0.0015485,"MEAN_MOTION_DOT":0.00020697,"MEAN_MOTION_DDOT":0},{"OBJECT_NAME":"STARLINK-5516","OBJECT_ID":"2023-094AM","EPOCH":"2025-11-29T22:41:22.636032","MEAN_MOTION":15.02535685,"ECCENTRICITY":0.0001009,"INCLINATION":43.0022,"RA_OF_ASC_NODE":199.4931,"ARG_OF_PERICENTER":268.2413,"MEAN_ANOMALY":91.8314,"EPHEMERIS_TYPE":0,"CLASSIFICATION_TYPE":"U","NORAD_CAT_ID":57253,"ELEMENT_SET_NO":999,"REV_AT_EPOCH":13226,"BSTAR":5.2169e-5,"MEAN_MOTION_DOT":5.01e-6,"MEAN_MOTION_DDOT":0},{"OBJECT_NAME":"STARLINK-5490","OBJECT_ID":"2023-094AN","EPOCH":"2025-11-30T01:25:39.808128","MEAN_MOTION":15.02533614,"ECCENTRICITY":0.0001187,"INCLINATION":43.0026,"RA_OF_ASC_NODE":198.6286,"ARG_OF_PERICENTER":267.8916,"MEAN_ANOMALY":92.1791,"EPHEMERIS_TYPE":0,"CLASSIFICATION_TYPE":"U","NORAD_CAT_ID":57254,"ELEMENT_SET_NO":999,"REV_AT_EPOCH":13228,"BSTAR":4.1358e-5,"MEAN_MOTION_DOT":3.55e-6,"MEAN_MOTION_DDOT":0}]
